[{"OBJECT_NAME":"STARLINK-36207","OBJECT_ID":"2025-293M","EPOCH":"2026-03-09T11:22:17.509728","MEAN_MOTION":14.98309286,"ECCENTRICITY":0.0002744,"INCLINATION":70.0014,"RA_OF_ASC_NODE":95.0756,"ARG_OF_PERICENTER":271.2365,"MEAN_ANOMALY":88.8479,"EPHEMERIS_TYPE":0,"CLASSIFICATION_TYPE":"U","NORAD_CAT_ID":67014,"ELEMENT_SET_NO":999,"REV_AT_EPOCH":1485,"BSTAR":0.00020756491,"MEAN_MOTION_DOT":2.383e-5,"MEAN_MOTION_DDOT":0},{"OBJECT_NAME":"COSMOS 2251 DEB","OBJECT_ID":"1993-036BFE","EPOCH":"2026-03-07T11:17:48.105024","MEAN_MOTION":15.02528382,"ECCENTRICITY":0.00920663,"INCLINATION":74.0305,"RA_OF_ASC_NODE":348.6467,"ARG_OF_PERICENTER":45.7,"MEAN_ANOMALY":315.169,"EPHEMERIS_TYPE":0,"CLASSIFICATION_TYPE":"U","NORAD_CAT_ID":37084,"ELEMENT_SET_NO":999,"REV_AT_EPOCH":67539,"BSTAR":0.00092223433,"MEAN_MOTION_DOT":0.00013425,"MEAN_MOTION_DDOT":0}]
